NORAD_CAT_ID,OBJECT_NAME,OBJECT_TYPE,EPOCH,MEAN_MOTION,ECCENTRICITY,INCLINATION,RA_OF_ASC_NODE,ARG_OF_PERICENTER,MEAN_ANOMALY,BSTAR,MEAN_MOTION_DOT,MEAN_MOTION_DDOT,TLE_LINE0,TLE_LINE1,TLE_LINE2,SEMIMAJOR_AXIS,PERIOD,APOGEE,PERIGEE,DECAYED
50814.0,STARLINK-3324,PAYLOAD,2023-11-23 04:00:23,15.08840969,0.0001471,53.2174,328.9071,95.3121,264.8039,2.3173e-05,8.1e-07,0.0,0 STARLINK-3324,1 50814U 22001M   23327.16693561  .00000081  00000-0  23173-4 0  9996,2 50814  53.2174 328.9071 0001471  95.3121 264.8039 15.08840969105240,6917.877,95.437,540.76,538.725,0.0
50814.0,STARLINK-3324,PAYLOAD,2023-11-23 10:21:55,15.088446,0.0001146,53.217,327.7135,96.8276,263.2846,3.3425e-05,2.44e-06,0.0,0 STARLINK-3324,1 50814U 22001M   23327.43189149  .00000244  00000-0  33425-4 0  9990,2 50814  53.2170 327.7135 0001146  96.8276 263.2846 15.08844600104019,6917.866,95.437,540.524,538.939,0.0
50814.0,STARLINK-3324,PAYLOAD,2023-11-24 03:51:10,15.08836804,0.0001487,53.217,324.4372,99.9026,260.2134,-8.2727e-05,-1.604e-05,0.0,0 STARLINK-3324,1 50814U 22001M   23328.16054253 -.00001604  00000-0 -82727-4 0  9990,2 50814  53.2170 324.4372 0001487  99.9026 260.2134 15.08836804105397,6917.89,95.438,540.784,538.726,0.0
50814.0,STARLINK-3324,PAYLOAD,2023-11-24 05:26:33,15.0883805,0.000155,53.2178,324.1403,103.049,257.0676,-7.1121e-05,-1.42e-05,0.0,0 STARLINK-3324,1 50814U 22001M   23328.22678173 -.00001420  00000-0 -71121-4 0  9992,2 50814  53.2178 324.1403 0001550 103.0490 257.0676 15.08838050104131,6917.886,95.438,540.824,538.679,0.0
50814.0,STARLINK-3324,PAYLOAD,2023-11-25 06:52:43,15.08842017,0.0001461,53.2177,319.3867,89.4867,270.6293,0.00013513,1.863e-05,0.0,0 STARLINK-3324,1 50814U 22001M   23329.28662019  .00001863  00000-0  13513-3 0  9990,2 50814  53.2177 319.3867 0001461  89.4867 270.6293 15.08842017104297,6917.874,95.437,540.75,538.729,0.0
50814.0,STARLINK-3324,PAYLOAD,2023-11-26 03:32:44,15.0885961,0.0001504,53.2174,315.5236,102.3491,257.7669,0.00041671,6.354e-05,0.0,0 STARLINK-3324,1 50814U 22001M   23330.14773245  .00006354  00000-0  41671-3 0  9997,2 50814  53.2174 315.5236 0001504 102.3491 257.7669 15.08859610105693,6917.82,95.436,540.726,538.645,0.0
50814.0,STARLINK-3324,PAYLOAD,2023-11-26 08:18:53,15.08871856,0.0001543,53.2166,314.6317,97.7739,262.3429,0.00073246,0.00011398,0.0,0 STARLINK-3324,1 50814U 22001M   23330.34644987  .00011398  00000-0  73246-3 0  9996,2 50814  53.2166 314.6317 0001543  97.7739 262.3429 15.08871856104454,6917.783,95.436,540.715,538.581,0.0
50814.0,STARLINK-3324,PAYLOAD,2023-11-26 22:37:22,15.08822245,0.0002046,53.2168,311.9564,91.038,269.0846,-0.00053093,-8.724e-05,0.0,0 STARLINK-3324,1 50814U 22001M   23330.94262671 -.00008724  00000-0 -53093-3 0  9997,2 50814  53.2168 311.9564 0002046  91.0380 269.0846 15.08822245104543,6917.935,95.439,541.215,538.384,0.0
50814.0,STARLINK-3324,PAYLOAD,2023-11-27 03:23:32,15.0880945,0.0001536,53.2168,311.0639,79.7454,280.3711,-0.00066932,-0.00010915,0.0,0 STARLINK-3324,1 50814U 22001M   23331.14135276 -.00010915  00000-0 -66932-3 0  9991,2 50814  53.2168 311.0639 0001536  79.7454 280.3711 15.08809450105849,6917.974,95.439,540.901,538.776,0.0
50814.0,STARLINK-3324,PAYLOAD,2023-11-27 06:34:19,15.0881384,0.0001649,53.2167,310.4692,76.2628,283.8548,-0.00041843,-6.936e-05,0.0,0 STARLINK-3324,1 50814U 22001M   23331.27383640 -.00006936  00000-0 -41843-3 0  9997,2 50814  53.2167 310.4692 0001649  76.2628 283.8548 15.08813840104595,6917.96,95.439,540.966,538.685,0.0
50814.0,STARLINK-3324,PAYLOAD,2023-11-27 22:28:10,15.08836815,0.0001701,53.217,307.4949,68.2798,291.8375,0.00033188,4.997e-05,0.0,0 STARLINK-3324,1 50814U 22001M   23331.93623777  .00004997  00000-0  33188-3 0  9994,2 50814  53.2170 307.4949 0001701  68.2798 291.8375 15.08836815104693,6917.89,95.438,540.932,538.578,0.0
50814.0,STARLINK-3324,PAYLOAD,2023-11-28 04:49:43,15.08845779,0.000186,53.2163,306.306,66.7314,293.3874,0.0010516,0.00016491,0.0,0 STARLINK-3324,1 50814U 22001M   23332.20120069  .00016491  00000-0  10516-2 0  9992,2 50814  53.2163 306.3060 0001860  66.7314 293.3874 15.08845779104735,6917.863,95.437,541.014,538.441,0.0
50814.0,STARLINK-3324,PAYLOAD,2023-11-29 01:29:44,15.0885318,0.0001806,53.2159,302.439,85.7498,274.37,0.00034971,5.284e-05,0.0,0 STARLINK-3324,1 50814U 22001M   23333.06231605  .00005284  00000-0  34971-3 0  9996,2 50814  53.2159 302.4390 0001806  85.7498 274.3700 15.08853180106135,6917.84,95.437,540.954,538.456,0.0
50814.0,STARLINK-3324,PAYLOAD,2023-11-29 07:51:16,15.08858363,0.0001718,53.2157,301.248,90.8239,269.295,0.00053823,8.293e-05,0.0,0 STARLINK-3324,1 50814U 22001M   23333.32727214  .00008293  00000-0  53823-3 0  9991,2 50814  53.2157 301.2480 0001718  90.8239 269.2950 15.08858363104903,6917.824,95.436,540.878,538.501,0.0
50814.0,STARLINK-3324,PAYLOAD,2023-11-30 02:55:54,15.08843513,0.0002372,53.2164,297.6746,120.0083,240.1145,0.00030889,4.632e-05,0.0,0 STARLINK-3324,1 50814U 22001M   23334.12215526  .00004632  00000-0  30889-3 0  9998,2 50814  53.2164 297.6746 0002372 120.0083 240.1145 15.08843513106293,6917.87,95.437,541.376,538.094,0.0
50814.0,STARLINK-3324,PAYLOAD,2023-12-01 02:46:41,15.08842732,0.0001928,53.2176,293.2142,111.8321,248.2876,4.1906e-05,3.79e-06,0.0,0 STARLINK-3324,1 50814U 22001M   23335.11575347  .00000379  00000-0  41906-4 0  9995,2 50814  53.2176 293.2142 0001928 111.8321 248.2876 15.08842732106446,6917.872,95.437,541.071,538.403,0.0
50814.0,STARLINK-3324,PAYLOAD,2023-12-01 07:32:50,15.08843019,0.0001962,53.2177,292.3227,107.3645,252.7561,7.8474e-05,9.61e-06,0.0,0 STARLINK-3324,1 50814U 22001M   23335.31447371  .00000961  00000-0  78474-4 0  9999,2 50814  53.2177 292.3227 0001962 107.3645 252.7561 15.08843019105201,6917.871,95.437,541.093,538.379,0.0
50814.0,STARLINK-3324,PAYLOAD,2023-12-02 01:02:04,15.08857831,0.0001954,53.2177,289.0531,108.4696,251.6508,0.00035979,5.445e-05,0.0,0 STARLINK-3324,1 50814U 22001M   23336.04310645  .00005445  00000-0  35979-3 0  9997,2 50814  53.2177 289.0531 0001954 108.4696 251.6508 15.08857831106589,6917.826,95.436,541.043,538.339,0.0
50814.0,STARLINK-3324,PAYLOAD,2023-12-02 05:48:13,15.08885322,0.0001765,53.2176,288.163,93.9551,266.1643,0.0010351,0.00016244,0.0,0 STARLINK-3324,1 50814U 22001M   23336.24181785  .00016244  00000-0  10351-2 0  9995,2 50814  53.2176 288.1630 0001765  93.9551 266.1643 15.08885322106617,6917.742,95.435,540.828,538.386,0.0
50814.0,STARLINK-3324,PAYLOAD,2023-12-03 04:03:38,15.08821847,0.0001718,53.2174,284.0014,106.8269,253.2912,-0.00032266,-5.417e-05,0.0,0 STARLINK-3324,1 50814U 22001M   23337.16920054 -.00005417  00000-0 -32266-3 0  9999,2 50814  53.2174 284.0014 0001718 106.8269 253.2912 15.08821847106757,6917.936,95.439,540.989,538.612,0.0
50814.0,STARLINK-3324,PAYLOAD,2023-12-03 05:39:02,15.08823978,0.0001798,53.2175,283.7051,114.1847,245.9333,-0.00026934,-4.57e-05,0.0,0 STARLINK-3324,1 50814U 22001M   23337.23544005 -.00004570  00000-0 -26934-3 0  9999,2 50814  53.2175 283.7051 0001798 114.1847 245.9333 15.08823978105499,6917.929,95.439,541.038,538.551,0.0
50814.0,STARLINK-3324,PAYLOAD,2023-12-03 10:25:11,15.08828385,0.0001672,53.2173,282.8118,109.6663,250.451,-0.00011493,-2.116e-05,0.0,0 STARLINK-3324,1 50814U 22001M   23337.43416072 -.00002116  00000-0 -11493-3 0  9991,2 50814  53.2173 282.8118 0001672 109.6663 250.4510 15.08828385106796,6917.916,95.438,540.938,538.624,0.0
50814.0,STARLINK-3324,PAYLOAD,2023-12-04 03:54:26,15.08844207,0.0001632,53.2161,279.5442,111.957,248.1595,0.00085104,0.00013284,0.0,0 STARLINK-3324,1 50814U 22001M   23338.16280463  .00013284  00000-0  85104-3 0  9991,2 50814  53.2161 279.5442 0001632 111.9570 248.1595 15.08844207106906,6917.868,95.437,540.862,538.604,0.0
50814.0,STARLINK-3324,PAYLOAD,2023-12-04 05:29:49,15.08850671,0.0001654,53.2163,279.2458,113.2733,246.8433,0.0010159,0.00015922,0.0,0 STARLINK-3324,1 50814U 22001M   23338.22904345  .00015922  00000-0  10159-2 0  9998,2 50814  53.2163 279.2458 0001654 113.2733 246.8433 15.08850671105640,6917.848,95.437,540.857,538.569,0.0
50814.0,STARLINK-3324,PAYLOAD,2023-12-04 19:48:17,15.08857164,0.0001895,53.2157,276.5706,107.5156,252.6044,0.00085993,0.00013431,0.0,0 STARLINK-3324,1 50814U 22001M   23338.82520319  .00013431  00000-0  85993-3 0  9991,2 50814  53.2157 276.5706 0001895 107.5156 252.6044 15.08857164105738,6917.828,95.436,541.004,538.382,0.0
50814.0,STARLINK-3324,PAYLOAD,2023-12-05 02:09:49,15.08860529,0.0001682,53.2158,275.3807,112.9273,247.1897,0.0012469,0.00019623,0.0,0 STARLINK-3324,1 50814U 22001M   23339.09016053  .00019623  00000-0  12469-2 0  9992,2 50814  53.2158 275.3807 0001682 112.9273 247.1897 15.08860529107042,6917.818,95.436,540.846,538.519,0.0
50814.0,STARLINK-3324,PAYLOAD,2023-12-05 05:20:35,15.08865692,0.0001785,53.2158,274.7854,116.7718,243.3457,0.0012771,0.0002011,0.0,0 STARLINK-3324,1 50814U 22001M   23339.22263800  .00020110  00000-0  12771-2 0  9990,2 50814  53.2158 274.7854 0001785 116.7718 243.3457 15.08865692105793,6917.802,95.436,540.902,538.432,0.0
50814.0,STARLINK-3324,PAYLOAD,2023-12-05 19:39:04,15.08854928,0.0001862,53.2161,272.1087,111.357,248.7621,0.0012758,0.00020083,0.0,0 STARLINK-3324,1 50814U 22001M   23339.81880028  .00020083  00000-0  12758-2 0  9996,2 50814  53.2161 272.1087 0001862 111.3570 248.7621 15.08854928107154,6917.835,95.437,540.988,538.412,0.0
50814.0,STARLINK-3324,PAYLOAD,2023-12-06 02:00:36,15.08854474,0.0001719,53.2165,270.9183,111.4516,248.6659,0.00088346,0.00013806,0.0,0 STARLINK-3324,1 50814U 22001M   23340.08375874  .00013806  00000-0  88346-3 0  9997,2 50814  53.2165 270.9183 0001719 111.4516 248.6659 15.08854474107193,6917.836,95.437,540.89,538.512,0.0
50814.0,STARLINK-3324,PAYLOAD,2023-12-06 05:11:22,15.08856054,0.0001648,53.2163,270.3241,108.8182,251.2989,0.00082115,0.0001281,0.0,0 STARLINK-3324,1 50814U 22001M   23340.21623774  .00012810  00000-0  82115-3 0  9999,2 50814  53.2163 270.3241 0001648 108.8182 251.2989 15.08856054105943,6917.831,95.437,540.836,538.556,0.0
